[{"OBJECT_NAME":"SITRO-AIS 5 (KATYS)","OBJECT_ID":"2023-091L","EPOCH":"2026-03-09T22:36:44.932608","MEAN_MOTION":15.27079182,"ECCENTRICITY":0.00133776,"INCLINATION":97.5176,"RA_OF_ASC_NODE":132.0172,"ARG_OF_PERICENTER":94.5677,"MEAN_ANOMALY":265.709,"EPHEMERIS_TYPE":0,"CLASSIFICATION_TYPE":"U","NORAD_CAT_ID":57176,"ELEMENT_SET_NO":999,"REV_AT_EPOCH":14918,"BSTAR":0.00057530772,"MEAN_MOTION_DOT":0.00015262,"MEAN_MOTION_DDOT":0},{"OBJECT_NAME":"STARLINK-31733","OBJECT_ID":"2024-071C","EPOCH":"2026-03-09T03:07:11.331264","MEAN_MOTION":15.27568165,"ECCENTRICITY":8.666e-5,"INCLINATION":43.0014,"RA_OF_ASC_NODE":342.5971,"ARG_OF_PERICENTER":279.6373,"MEAN_ANOMALY":80.4381,"EPHEMERIS_TYPE":0,"CLASSIFICATION_TYPE":"U","NORAD_CAT_ID":59486,"ELEMENT_SET_NO":999,"REV_AT_EPOCH":10812,"BSTAR":-0.00011288663,"MEAN_MOTION_DOT":-3.366e-5,"MEAN_MOTION_DDOT":0}]
